[{"OBJECT_NAME":"COSMOS 1894","OBJECT_ID":"1987-091A","EPOCH":"2026-03-06T00:10:01.999776","MEAN_MOTION":1.00265082,"ECCENTRICITY":0.00053802,"INCLINATION":10.901,"RA_OF_ASC_NODE":326.2057,"ARG_OF_PERICENTER":8.6821,"MEAN_ANOMALY":170.4965,"EPHEMERIS_TYPE":0,"CLASSIFICATION_TYPE":"U","NORAD_CAT_ID":18443,"ELEMENT_SET_NO":999,"REV_AT_EPOCH":11978,"BSTAR":0,"MEAN_MOTION_DOT":-1.82e-6,"MEAN_MOTION_DDOT":0},{"OBJECT_NAME":"SL-12 R/B(2)","OBJECT_ID":"1987-091D","EPOCH":"2026-03-06T17:24:38.772864","MEAN_MOTION":1.00233496,"ECCENTRICITY":0.0022413,"INCLINATION":10.9336,"RA_OF_ASC_NODE":326.3713,"ARG_OF_PERICENTER":266.1534,"MEAN_ANOMALY":339.4537,"EPHEMERIS_TYPE":0,"CLASSIFICATION_TYPE":"U","NORAD_CAT_ID":18446,"ELEMENT_SET_NO":999,"REV_AT_EPOCH":12897,"BSTAR":0,"MEAN_MOTION_DOT":-2.54e-6,"MEAN_MOTION_DDOT":0},{"OBJECT_NAME":"COSMOS 1897","OBJECT_ID":"1987-096A","EPOCH":"2026-03-05T19:28:02.701632","MEAN_MOTION":1.00322716,"ECCENTRICITY":0.00051061,"INCLINATION":11.1672,"RA_OF_ASC_NODE":327.5687,"ARG_OF_PERICENTER":131.7478,"MEAN_ANOMALY":67.0613,"EPHEMERIS_TYPE":0,"CLASSIFICATION_TYPE":"U","NORAD_CAT_ID":18575,"ELEMENT_SET_NO":999,"REV_AT_EPOCH":14015,"BSTAR":0,"MEAN_MOTION_DOT":-8.0e-7,"MEAN_MOTION_DDOT":0},{"OBJECT_NAME":"SL-12 R/B(2)","OBJECT_ID":"1987-096D","EPOCH":"2026-03-06T05:01:49.020096","MEAN_MOTION":1.00575315,"ECCENTRICITY":0.00220934,"INCLINATION":10.9603,"RA_OF_ASC_NODE":326.833,"ARG_OF_PERICENTER":248.9279,"MEAN_ANOMALY":306.3143,"EPHEMERIS_TYPE":0,"CLASSIFICATION_TYPE":"U","NORAD_CAT_ID":18578,"ELEMENT_SET_NO":999,"REV_AT_EPOCH":13699,"BSTAR":0,"MEAN_MOTION_DOT":-2.82e-6,"MEAN_MOTION_DDOT":0},{"OBJECT_NAME":"RADUGA 21","OBJECT_ID":"1987-100A","EPOCH":"2026-03-06T06:32:10.355712","MEAN_MOTION":1.00356834,"ECCENTRICITY":0.00016424,"INCLINATION":11.453,"RA_OF_ASC_NODE":325.9874,"ARG_OF_PERICENTER":309.4597,"MEAN_ANOMALY":225.2315,"EPHEMERIS_TYPE":0,"CLASSIFICATION_TYPE":"U","NORAD_CAT_ID":18631,"ELEMENT_SET_NO":999,"REV_AT_EPOCH":14005,"BSTAR":0,"MEAN_MOTION_DOT":-1.9e-7,"MEAN_MOTION_DDOT":0},{"OBJECT_NAME":"STTW-2","OBJECT_ID":"1988-014A","EPOCH":"2026-03-06T14:01:21.093024","MEAN_MOTION":1.00301617,"ECCENTRICITY":0.00033332,"INCLINATION":13.3458,"RA_OF_ASC_NODE":340.4277,"ARG_OF_PERICENTER":186.1544,"MEAN_ANOMALY":277.0345,"EPHEMERIS_TYPE":0,"CLASSIFICATION_TYPE":"U","NORAD_CAT_ID":18922,"ELEMENT_SET_NO":999,"REV_AT_EPOCH":13908,"BSTAR":0,"MEAN_MOTION_DOT":-5.9e-7,"MEAN_MOTION_DDOT":0},{"OBJECT_NAME":"SPACENET 3R","OBJECT_ID":"1988-018A","EPOCH":"2026-03-05T22:35:38.587776","MEAN_MOTION":0.99660247,"ECCENTRICITY":0.00054954,"INCLINATION":14.6812,"RA_OF_ASC_NODE":0.4671,"ARG_OF_PERICENTER":287.4077,"MEAN_ANOMALY":251.6438,"EPHEMERIS_TYPE":0,"CLASSIFICATION_TYPE":"U","NORAD_CAT_ID":18951,"ELEMENT_SET_NO":999,"REV_AT_EPOCH":12358,"BSTAR":0,"MEAN_MOTION_DOT":8.1e-7,"MEAN_MOTION_DDOT":0},{"OBJECT_NAME":"COSMOS 1940","OBJECT_ID":"1988-034A","EPOCH":"2026-03-06T00:13:39.153216","MEAN_MOTION":1.00656807,"ECCENTRICITY":0.00219315,"INCLINATION":11.1094,"RA_OF_ASC_NODE":327.2508,"ARG_OF_PERICENTER":295.7936,"MEAN_ANOMALY":256.5304,"EPHEMERIS_TYPE":0,"CLASSIFICATION_TYPE":"U","NORAD_CAT_ID":19073,"ELEMENT_SET_NO":999,"REV_AT_EPOCH":12031,"BSTAR":0,"MEAN_MOTION_DOT":-1.7e-7,"MEAN_MOTION_DDOT":0},{"OBJECT_NAME":"SL-12 R/B(2)","OBJECT_ID":"1988-034D","EPOCH":"2026-03-06T06:32:40.308000","MEAN_MOTION":1.0008334,"ECCENTRICITY":0.00220477,"INCLINATION":11.4067,"RA_OF_ASC_NODE":328.2498,"ARG_OF_PERICENTER":189.7433,"MEAN_ANOMALY":344.6034,"EPHEMERIS_TYPE":0,"CLASSIFICATION_TYPE":"U","NORAD_CAT_ID":19076,"ELEMENT_SET_NO":999,"REV_AT_EPOCH":13807,"BSTAR":0,"MEAN_MOTION_DOT":6.0e-8,"MEAN_MOTION_DDOT":0},{"OBJECT_NAME":"INSAT-1C","OBJECT_ID":"1988-063A","EPOCH":"2026-03-06T12:13:28.378272","MEAN_MOTION":1.00240404,"ECCENTRICITY":0.0003773,"INCLINATION":11.4602,"RA_OF_ASC_NODE":328.4554,"ARG_OF_PERICENTER":125.3429,"MEAN_ANOMALY":341.8634,"EPHEMERIS_TYPE":0,"CLASSIFICATION_TYPE":"U","NORAD_CAT_ID":19330,"ELEMENT_SET_NO":999,"REV_AT_EPOCH":11931,"BSTAR":0,"MEAN_MOTION_DOT":-2.22e-6,"MEAN_MOTION_DDOT":0},{"OBJECT_NAME":"COSMOS 1961","OBJECT_ID":"1988-066A","EPOCH":"2026-03-06T14:04:58.737216","MEAN_MOTION":1.00275091,"ECCENTRICITY":0.00017489,"INCLINATION":11.5935,"RA_OF_ASC_NODE":330.3872,"ARG_OF_PERICENTER":157.4303,"MEAN_ANOMALY":327.9159,"EPHEMERIS_TYPE":0,"CLASSIFICATION_TYPE":"U","NORAD_CAT_ID":19344,"ELEMENT_SET_NO":999,"REV_AT_EPOCH":13798,"BSTAR":0,"MEAN_MOTION_DOT":-1.56e-6,"MEAN_MOTION_DDOT":0},{"OBJECT_NAME":"GORIZONT 16","OBJECT_ID":"1988-071A","EPOCH":"2026-03-06T00:13:46.640640","MEAN_MOTION":0.99987289,"ECCENTRICITY":0.00116892,"INCLINATION":11.6616,"RA_OF_ASC_NODE":330.4912,"ARG_OF_PERICENTER":77.3888,"MEAN_ANOMALY":111.4754,"EPHEMERIS_TYPE":0,"CLASSIFICATION_TYPE":"U","NORAD_CAT_ID":19397,"ELEMENT_SET_NO":999,"REV_AT_EPOCH":13720,"BSTAR":0,"MEAN_MOTION_DOT":-1.35e-6,"MEAN_MOTION_DDOT":0},{"OBJECT_NAME":"SL-12 R/B(2)","OBJECT_ID":"1988-071D","EPOCH":"2026-03-05T20:58:22.884672","MEAN_MOTION":1.00545282,"ECCENTRICITY":0.00190871,"INCLINATION":11.3871,"RA_OF_ASC_NODE":329.7267,"ARG_OF_PERICENTER":240.7632,"MEAN_ANOMALY":295.0092,"EPHEMERIS_TYPE":0,"CLASSIFICATION_TYPE":"U","NORAD_CAT_ID":19400,"ELEMENT_SET_NO":999,"REV_AT_EPOCH":13166,"BSTAR":0,"MEAN_MOTION_DOT":1.27e-6,"MEAN_MOTION_DDOT":0},{"OBJECT_NAME":"GSTAR 3","OBJECT_ID":"1988-081A","EPOCH":"2026-03-06T06:36:32.437152","MEAN_MOTION":1.00271959,"ECCENTRICITY":0.0004545,"INCLINATION":11.264,"RA_OF_ASC_NODE":319.132,"ARG_OF_PERICENTER":219.6948,"MEAN_ANOMALY":339.0268,"EPHEMERIS_TYPE":0,"CLASSIFICATION_TYPE":"U","NORAD_CAT_ID":19483,"ELEMENT_SET_NO":999,"REV_AT_EPOCH":13356,"BSTAR":0,"MEAN_MOTION_DOT":-1.07e-6,"MEAN_MOTION_DDOT":0},{"OBJECT_NAME":"SBS 5","OBJECT_ID":"1988-081B","EPOCH":"2026-03-05T23:49:38.789184","MEAN_MOTION":0.99794694,"ECCENTRICITY":0.00084777,"INCLINATION":14.5819,"RA_OF_ASC_NODE":1.7098,"ARG_OF_PERICENTER":317.2227,"MEAN_ANOMALY":219.4525,"EPHEMERIS_TYPE":0,"CLASSIFICATION_TYPE":"U","NORAD_CAT_ID":19484,"ELEMENT_SET_NO":999,"REV_AT_EPOCH":4543,"BSTAR":0,"MEAN_MOTION_DOT":4.0e-8,"MEAN_MOTION_DDOT":0},{"OBJECT_NAME":"TDRS 3","OBJECT_ID":"1988-091B","EPOCH":"2026-03-05T19:09:20.611872","MEAN_MOTION":1.00259845,"ECCENTRICITY":0.00441837,"INCLINATION":12.6797,"RA_OF_ASC_NODE":341.6841,"ARG_OF_PERICENTER":353.3967,"MEAN_ANOMALY":66.2018,"EPHEMERIS_TYPE":0,"CLASSIFICATION_TYPE":"U","NORAD_CAT_ID":19548,"ELEMENT_SET_NO":999,"REV_AT_EPOCH":12435,"BSTAR":0,"MEAN_MOTION_DOT":-3.03e-6,"MEAN_MOTION_DDOT":0},{"OBJECT_NAME":"IUS R/B(2)","OBJECT_ID":"1988-091D","EPOCH":"2026-03-06T03:21:58.592736","MEAN_MOTION":1.00478221,"ECCENTRICITY":0.00206391,"INCLINATION":12.3353,"RA_OF_ASC_NODE":331.7349,"ARG_OF_PERICENTER":304.3275,"MEAN_ANOMALY":230.2048,"EPHEMERIS_TYPE":0,"CLASSIFICATION_TYPE":"U","NORAD_CAT_ID":19550,"ELEMENT_SET_NO":999,"REV_AT_EPOCH":12907,"BSTAR":0,"MEAN_MOTION_DOT":-2.98e-6,"MEAN_MOTION_DDOT":0},{"OBJECT_NAME":"RADUGA 22","OBJECT_ID":"1988-095A","EPOCH":"2026-03-06T12:18:17.938368","MEAN_MOTION":1.0016884,"ECCENTRICITY":0.00045307,"INCLINATION":11.676,"RA_OF_ASC_NODE":330.8092,"ARG_OF_PERICENTER":205.4128,"MEAN_ANOMALY":269.0912,"EPHEMERIS_TYPE":0,"CLASSIFICATION_TYPE":"U","NORAD_CAT_ID":19596,"ELEMENT_SET_NO":999,"REV_AT_EPOCH":12062,"BSTAR":0,"MEAN_MOTION_DOT":-2.77e-6,"MEAN_MOTION_DDOT":0},{"OBJECT_NAME":"STTW-3","OBJECT_ID":"1988-111A","EPOCH":"2026-03-05T15:32:20.997600","MEAN_MOTION":1.00194156,"ECCENTRICITY":0.0003512,"INCLINATION":14.1048,"RA_OF_ASC_NODE":346.3379,"ARG_OF_PERICENTER":196.3398,"MEAN_ANOMALY":282.9616,"EPHEMERIS_TYPE":0,"CLASSIFICATION_TYPE":"U","NORAD_CAT_ID":19710,"ELEMENT_SET_NO":999,"REV_AT_EPOCH":12980,"BSTAR":0,"MEAN_MOTION_DOT":-4.3e-7,"MEAN_MOTION_DDOT":0},{"OBJECT_NAME":"IUS R/B(2)","OBJECT_ID":"1989-021D","EPOCH":"2026-03-06T14:05:15.969696","MEAN_MOTION":1.00621966,"ECCENTRICITY":0.00227802,"INCLINATION":8.8722,"RA_OF_ASC_NODE":321.0261,"ARG_OF_PERICENTER":192.2322,"MEAN_ANOMALY":306.0839,"EPHEMERIS_TYPE":0,"CLASSIFICATION_TYPE":"U","NORAD_CAT_ID":19913,"ELEMENT_SET_NO":999,"REV_AT_EPOCH":12462,"BSTAR":0,"MEAN_MOTION_DOT":-2.56e-6,"MEAN_MOTION_DDOT":0},{"OBJECT_NAME":"RADUGA 23","OBJECT_ID":"1989-030A","EPOCH":"2026-03-06T15:22:35.262624","MEAN_MOTION":1.00261299,"ECCENTRICITY":0.00187278,"INCLINATION":11.9231,"RA_OF_ASC_NODE":332.6577,"ARG_OF_PERICENTER":209.2217,"MEAN_ANOMALY":331.9767,"EPHEMERIS_TYPE":0,"CLASSIFICATION_TYPE":"U","NORAD_CAT_ID":19928,"ELEMENT_SET_NO":999,"REV_AT_EPOCH":13382,"BSTAR":0,"MEAN_MOTION_DOT":-3.76e-6,"MEAN_MOTION_DDOT":0},{"OBJECT_NAME":"SUPERBIRD-A","OBJECT_ID":"1989-041A","EPOCH":"2026-03-05T20:58:37.861248","MEAN_MOTION":0.99750354,"ECCENTRICITY":0.00040853,"INCLINATION":12.2958,"RA_OF_ASC_NODE":333.0071,"ARG_OF_PERICENTER":57.1025,"MEAN_ANOMALY":116.3706,"EPHEMERIS_TYPE":0,"CLASSIFICATION_TYPE":"U","NORAD_CAT_ID":20040,"ELEMENT_SET_NO":999,"REV_AT_EPOCH":13343,"BSTAR":0,"MEAN_MOTION_DOT":6.6e-7,"MEAN_MOTION_DDOT":0},{"OBJECT_NAME":"DFS 1","OBJECT_ID":"1989-041B","EPOCH":"2026-03-01T22:53:47.690016","MEAN_MOTION":1.0066391,"ECCENTRICITY":0.0016985,"INCLINATION":14.0421,"RA_OF_ASC_NODE":347.368,"ARG_OF_PERICENTER":309.0019,"MEAN_ANOMALY":246.1155,"EPHEMERIS_TYPE":0,"CLASSIFICATION_TYPE":"U","NORAD_CAT_ID":20041,"ELEMENT_SET_NO":999,"REV_AT_EPOCH":12341,"BSTAR":0,"MEAN_MOTION_DOT":8.0e-7,"MEAN_MOTION_DDOT":0},{"OBJECT_NAME":"TVSAT 2","OBJECT_ID":"1989-062A","EPOCH":"2026-03-06T00:17:46.258080","MEAN_MOTION":0.99854651,"ECCENTRICITY":0.00029338,"INCLINATION":14.6954,"RA_OF_ASC_NODE":356.5709,"ARG_OF_PERICENTER":228.196,"MEAN_ANOMALY":310.0636,"EPHEMERIS_TYPE":0,"CLASSIFICATION_TYPE":"U","NORAD_CAT_ID":20168,"ELEMENT_SET_NO":999,"REV_AT_EPOCH":13347,"BSTAR":0,"MEAN_MOTION_DOT":-5.9e-7,"MEAN_MOTION_DDOT":0}]
